[{"OBJECT_NAME":"LKW-4","OBJECT_ID":"2018-025A","EPOCH":"2026-03-09T22:35:59.889696","MEAN_MOTION":15.54576681,"ECCENTRICITY":0.00029172,"INCLINATION":97.6271,"RA_OF_ASC_NODE":232.6737,"ARG_OF_PERICENTER":300.1115,"MEAN_ANOMALY":59.9849,"EPHEMERIS_TYPE":0,"CLASSIFICATION_TYPE":"U","NORAD_CAT_ID":43236,"ELEMENT_SET_NO":999,"REV_AT_EPOCH":44457,"BSTAR":0.00064120349,"MEAN_MOTION_DOT":0.00042392,"MEAN_MOTION_DDOT":0},{"OBJECT_NAME":"STARLINK-2510","OBJECT_ID":"2021-036BF","EPOCH":"2026-03-10T00:00:02.999808","MEAN_MOTION":15.27522735,"ECCENTRICITY":0.00013223,"INCLINATION":53.1472,"RA_OF_ASC_NODE":99.4042,"ARG_OF_PERICENTER":72.9296,"MEAN_ANOMALY":288.2883,"EPHEMERIS_TYPE":0,"CLASSIFICATION_TYPE":"U","NORAD_CAT_ID":48329,"ELEMENT_SET_NO":999,"REV_AT_EPOCH":579,"BSTAR":0.061604717,"MEAN_MOTION_DOT":0.01847718,"MEAN_MOTION_DDOT":0}]
